NORAD_CAT_ID,OBJECT_NAME,OBJECT_TYPE,EPOCH,MEAN_MOTION,ECCENTRICITY,INCLINATION,RA_OF_ASC_NODE,ARG_OF_PERICENTER,MEAN_ANOMALY,BSTAR,MEAN_MOTION_DOT,MEAN_MOTION_DDOT,TLE_LINE0,TLE_LINE1,TLE_LINE2,SEMIMAJOR_AXIS,PERIOD,APOGEE,PERIGEE,DECAYED
52475.0,STARLINK-3882,PAYLOAD,2024-05-01 13:19:42,15.08838322,0.0001515,53.2173,219.118,103.8941,256.222,0.00042703,6.514e-05,0.0,0 STARLINK-3882,1 52475U 22049AA  24122.55535217  .00006514  00000-0  42703-3 0  9999,2 52475  53.2173 219.1180 0001515 103.8941 256.2220 15.08838322110186,6917.886,95.438,540.799,538.702,0.0
52475.0,STARLINK-3882,PAYLOAD,2024-05-02 05:13:32,15.08847233,0.0001943,53.2174,216.144,84.6671,275.4543,-0.00026283,-4.47e-05,0.0,0 STARLINK-3882,1 52475U 22049AA  24123.21774103 -.00004470  00000-0 -26283-3 0  9998,2 52475  53.2174 216.1440 0001943  84.6671 275.4543 15.08847233110287,6917.858,95.437,541.067,538.379,0.0
52475.0,STARLINK-3882,PAYLOAD,2024-05-02 13:10:28,15.08846724,0.0001339,53.2162,214.6559,95.8378,264.2767,-0.00017162,-3.019e-05,0.0,0 STARLINK-3882,1 52475U 22049AA  24123.54893971 -.00003019  00000-0 -17162-3 0  9993,2 52475  53.2162 214.6559 0001339  95.8378 264.2767 15.08846724110171,6917.86,95.437,540.651,538.799,0.0
52475.0,STARLINK-3882,PAYLOAD,2024-05-03 13:01:14,15.08861511,6.96e-05,53.2153,210.1968,95.3681,264.739,0.00033479,5.048e-05,0.0,0 STARLINK-3882,1 52475U 22049AA  24124.54253314  .00005048  00000-0  33479-3 0  9996,2 52475  53.2153 210.1968 0000696  95.3681 264.7390 15.08861511110485,6917.815,95.436,540.161,539.198,0.0
52475.0,STARLINK-3882,PAYLOAD,2024-05-03 22:33:33,15.08853812,5.49e-05,53.214,208.4111,44.7336,315.3701,0.00016063,2.271e-05,0.0,0 STARLINK-3882,1 52475U 22049AA  24124.93997377  .00002271  00000-0  16063-3 0  9998,2 52475  53.2140 208.4111 0000549  44.7336 315.3701 15.08853812110386,6917.838,95.437,540.083,539.323,0.0
52475.0,STARLINK-3882,PAYLOAD,2024-05-04 04:55:07,15.08823335,0.000144,53.2152,207.2245,82.165,277.9506,-9.9426e-05,-1.869e-05,0.0,0 STARLINK-3882,1 52475U 22049AA  24125.20495349 -.00001869  00000-0 -99426-4 0  9990,2 52475  53.2152 207.2245 0001440  82.1650 277.9506 15.08823335110585,6917.931,95.439,540.793,538.8,0.0
52475.0,STARLINK-3882,PAYLOAD,2024-05-05 12:42:51,15.08843141,0.0001258,53.2154,201.2762,69.9248,290.188,0.0012153,0.00019108,0.0,0 STARLINK-3882,1 52475U 22049AA  24126.52976056  .00019108  00000-0  12153-2 0  9998,2 52475  53.2154 201.2762 0001258  69.9248 290.1880 15.08843141110789,6917.871,95.437,540.606,538.866,0.0
52475.0,STARLINK-3882,PAYLOAD,2024-05-05 22:15:09,15.0885673,0.0001287,53.2152,199.4921,68.7083,291.4046,0.0012646,0.00019905,0.0,0 STARLINK-3882,1 52475U 22049AA  24126.92719857  .00019905  00000-0  12646-2 0  9998,2 52475  53.2152 199.4921 0001287  68.7083 291.4046 15.08856730110683,6917.829,95.436,540.585,538.804,0.0
52475.0,STARLINK-3882,PAYLOAD,2024-05-06 10:58:14,15.08881133,0.0001345,53.215,197.1133,67.3583,292.7551,0.0015129,0.00023899,0.0,0 STARLINK-3882,1 52475U 22049AA  24127.45710893  .00023899  00000-0  15129-2 0  9994,2 52475  53.2150 197.1133 0001345  67.3583 292.7551 15.08881133110765,6917.755,95.435,540.55,538.689,0.0
52475.0,STARLINK-3882,PAYLOAD,2024-05-06 22:05:55,15.0887204,0.0001445,53.215,195.0322,62.675,297.4389,0.00086408,0.00013503,0.0,0 STARLINK-3882,1 52475U 22049AA  24127.92078520  .00013503  00000-0  86408-3 0  9990,2 52475  53.2150 195.0322 0001445  62.6750 297.4389 15.08872040110833,6917.782,95.436,540.647,538.648,0.0
52475.0,STARLINK-3882,PAYLOAD,2024-05-07 04:27:28,15.08865108,0.0002441,53.2152,193.8426,77.9917,282.1348,0.0007733,0.00012049,0.0,0 STARLINK-3882,1 52475U 22049AA  24128.18574868  .00012049  00000-0  77330-3 0  9993,2 52475  53.2152 193.8426 0002441  77.9917 282.1348 15.08865108111033,6917.804,95.436,541.357,537.98,0.0
52475.0,STARLINK-3882,PAYLOAD,2024-05-07 10:49:01,15.08848191,0.0001223,53.2154,192.6532,75.9722,284.1406,0.00041033,6.25e-05,0.0,0 STARLINK-3882,1 52475U 22049AA  24128.45070778  .00006250  00000-0  41033-3 0  9992,2 52475  53.2154 192.6532 0001223  75.9722 284.1406 15.08848191111073,6917.855,95.437,540.566,538.874,0.0
52475.0,STARLINK-3882,PAYLOAD,2024-05-08 10:39:48,15.08853352,0.000127,53.2156,188.193,79.0908,281.0227,0.00094847,0.00014845,0.0,0 STARLINK-3882,1 52475U 22049AA  24129.44431196  .00014845  00000-0  94847-3 0  9997,2 52475  53.2156 188.1930 0001270  79.0908 281.0227 15.08853352111229,6917.84,95.437,540.583,538.826,0.0
52475.0,STARLINK-3882,PAYLOAD,2024-05-08 13:50:34,15.08857955,0.0001277,53.2153,187.598,79.1155,280.9981,0.0009751,0.00015272,0.0,0 STARLINK-3882,1 52475U 22049AA  24129.57679027  .00015272  00000-0  97510-3 0  9993,2 52475  53.2153 187.5980 0001277  79.1155 280.9981 15.08857955111088,6917.826,95.436,540.574,538.807,0.0
52475.0,STARLINK-3882,PAYLOAD,2024-05-09 04:09:02,15.08852173,0.0001351,53.2147,184.9209,80.5022,279.6123,0.00040452,6.158e-05,0.0,0 STARLINK-3882,1 52475U 22049AA  24130.17294829  .00006158  00000-0  40452-3 0  9990,2 52475  53.2147 184.9209 0001351  80.5022 279.6123 15.08852173111336,6917.843,95.437,540.643,538.774,0.0
52475.0,STARLINK-3882,PAYLOAD,2024-05-09 10:30:35,15.08854539,0.0001257,53.2144,183.7308,78.9203,281.193,0.00042079,6.418e-05,0.0,0 STARLINK-3882,1 52475U 22049AA  24130.43790686  .00006418  00000-0  42079-3 0  9997,2 52475  53.2144 183.7308 0001257  78.9203 281.1930 15.08854539111216,6917.836,95.437,540.571,538.831,0.0
52475.0,STARLINK-3882,PAYLOAD,2024-05-10 03:59:49,15.08842925,0.0001336,53.2145,180.462,83.4137,276.7007,1.3968e-05,-6.6e-07,0.0,0 STARLINK-3882,1 52475U 22049AA  24131.16654812 -.00000066  00000-0  13968-4 0  9998,2 52475  53.2145 180.4620 0001336  83.4137 276.7007 15.08842925111483,6917.871,95.437,540.661,538.812,0.0
52475.0,STARLINK-3882,PAYLOAD,2024-05-10 10:21:22,15.08844661,0.0001261,53.215,179.2724,84.2196,275.894,1.6106e-05,-3.2e-07,0.0,0 STARLINK-3882,1 52475U 22049AA  24131.43150809 -.00000032  00000-0  16106-4 0  9995,2 52475  53.2150 179.2724 0001261  84.2196 275.8940 15.08844661111363,6917.866,95.437,540.603,538.859,0.0
52475.0,STARLINK-3882,PAYLOAD,2024-05-10 19:53:40,15.08846967,0.0001274,53.2151,177.4883,85.3467,274.7671,4.7484e-05,4.68e-06,0.0,0 STARLINK-3882,1 52475U 22049AA  24131.82894632  .00000468  00000-0  47484-4 0  9992,2 52475  53.2151 177.4883 0001274  85.3467 274.7671 15.08846967111424,6917.859,95.437,540.605,538.843,0.0
52475.0,STARLINK-3882,PAYLOAD,2024-05-11 11:47:30,15.08895822,0.0001433,53.2148,174.515,117.0335,243.0804,0.0010236,0.00016065,0.0,0 STARLINK-3882,1 52475U 22049AA  24132.49132201  .00016065  00000-0  10236-2 0  9996,2 52475  53.2148 174.5150 0001433 117.0335 243.0804 15.08895822111688,6917.71,95.434,540.566,538.583,0.0
52475.0,STARLINK-3882,PAYLOAD,2024-05-11 19:44:26,15.08872987,0.0002084,53.213,173.0277,69.1986,290.9229,0.00055919,8.631e-05,0.0,0 STARLINK-3882,1 52475U 22049AA  24132.82252892  .00008631  00000-0  55919-3 0  9990,2 52475  53.2130 173.0277 0002084  69.1986 290.9229 15.08872987111730,6917.78,95.435,541.086,538.203,0.0
52475.0,STARLINK-3882,PAYLOAD,2024-05-12 11:38:21,15.08738983,0.0001267,53.2139,170.0524,78.5685,281.5449,-0.0024635,-0.00039173,0.0,0 STARLINK-3882,1 52475U 22049AA  24133.48497676 -.00039173  00000-0 -24635-2 0  9991,2 52475  53.2139 170.0524 0001267  78.5685 281.5449 15.08738983111831,6918.189,95.444,540.931,539.178,0.0
52475.0,STARLINK-3882,PAYLOAD,2024-05-12 19:35:18,15.08792031,0.0001572,53.2144,168.5654,95.7844,264.3328,-7.317e-05,-1.451e-05,0.0,0 STARLINK-3882,1 52475U 22049AA  24133.81618092 -.00001451  00000-0 -73170-4 0  9993,2 52475  53.2144 168.5654 0001572  95.7844 264.3328 15.08792031111884,6918.027,95.441,540.98,538.805,0.0
52475.0,STARLINK-3882,PAYLOAD,2024-05-13 11:29:10,15.08826459,0.0001359,53.2145,165.5926,105.8755,254.2387,0.0016525,0.000261,0.0,0 STARLINK-3882,1 52475U 22049AA  24134.47859636  .00026100  00000-0  16525-2 0  9992,2 52475  53.2145 165.5926 0001359 105.8755 254.2387 15.08826459111820,6917.922,95.438,540.727,538.847,0.0
52475.0,STARLINK-3882,PAYLOAD,2024-05-13 19:26:06,15.08842672,0.0001325,53.2146,164.1049,106.2545,253.8593,0.00080948,0.00012619,0.0,0 STARLINK-3882,1 52475U 22049AA  24134.80979309  .00012619  00000-0  80948-3 0  9990,2 52475  53.2146 164.1049 0001325 106.2545 253.8593 15.08842672111871,6917.872,95.437,540.654,538.821,0.0
52475.0,STARLINK-3882,PAYLOAD,2024-05-14 11:19:56,15.08857712,0.0001368,53.2147,161.1312,105.3224,254.792,0.00052935,8.151e-05,0.0,0 STARLINK-3882,1 52475U 22049AA  24135.47218581  .00008151  00000-0  52935-3 0  9993,2 52475  53.2147 161.1312 0001368 105.3224 254.7920 15.08857712112138,6917.826,95.436,540.638,538.745,0.0
52475.0,STARLINK-3882,PAYLOAD,2024-05-14 19:16:52,15.08864892,0.0001338,53.2149,159.6445,104.8232,255.2908,0.00055659,8.587e-05,0.0,0 STARLINK-3882,1 52475U 22049AA  24135.80338029  .00008587  00000-0  55659-3 0  9999,2 52475  53.2149 159.6445 0001338 104.8232 255.2908 15.08864892112026,6917.804,95.436,540.595,538.744,0.0
52475.0,STARLINK-3882,PAYLOAD,2024-05-15 11:10:42,15.08881132,0.0001325,53.215,156.6707,103.5245,256.5895,0.00069574,0.00010814,0.0,0 STARLINK-3882,1 52475U 22049AA  24136.46576466  .00010814  00000-0  69574-3 0  9998,2 52475  53.2150 156.6707 0001325 103.5245 256.5895 15.08881132112128,6917.755,95.435,540.536,538.703,0.0
52475.0,STARLINK-3882,PAYLOAD,2024-05-16 04:39:56,15.08863275,0.0001151,53.2154,153.3994,92.4405,267.6718,0.00015281,2.146e-05,0.0,0 STARLINK-3882,1 52475U 22049AA  24137.19439906  .00002146  00000-0  15281-3 0  9991,2 52475  53.2154 153.3994 0001151  92.4405 267.6718 15.08863275112399,6917.809,95.436,540.47,538.878,0.0
52475.0,STARLINK-3882,PAYLOAD,2024-05-16 07:50:42,15.08862144,0.0001249,53.2154,152.8044,93.5141,266.5994,0.00013063,1.793e-05,0.0,0 STARLINK-3882,1 52475U 22049AA  24137.32687757  .00001793  00000-0  13063-3 0  9998,2 52475  53.2154 152.8044 0001249  93.5141 266.5994 15.08862144112259,6917.813,95.436,540.542,538.814,0.0
